[{"OBJECT_NAME":"STARLINK-5956","OBJECT_ID":"2023-042J","EPOCH":"2026-03-09T07:40:56.933760","MEAN_MOTION":15.0254302,"ECCENTRICITY":0.00015998,"INCLINATION":43.004,"RA_OF_ASC_NODE":58.2163,"ARG_OF_PERICENTER":281.1467,"MEAN_ANOMALY":78.9196,"EPHEMERIS_TYPE":0,"CLASSIFICATION_TYPE":"U","NORAD_CAT_ID":55994,"ELEMENT_SET_NO":999,"REV_AT_EPOCH":16285,"BSTAR":4.0507053e-5,"MEAN_MOTION_DOT":3.44e-6,"MEAN_MOTION_DDOT":0},{"OBJECT_NAME":"CZ-4C DEB","OBJECT_ID":"2010-038D","EPOCH":"2026-03-09T01:12:27.235872","MEAN_MOTION":14.75804828,"ECCENTRICITY":0.01202328,"INCLINATION":97.9532,"RA_OF_ASC_NODE":164.702,"ARG_OF_PERICENTER":229.9203,"MEAN_ANOMALY":129.1417,"EPHEMERIS_TYPE":0,"CLASSIFICATION_TYPE":"U","NORAD_CAT_ID":37568,"ELEMENT_SET_NO":999,"REV_AT_EPOCH":82101,"BSTAR":0.0014631198,"MEAN_MOTION_DOT":0.00011242,"MEAN_MOTION_DDOT":0}]
